[
    {
        "Altitude(m)": 624790.7975137543,
        "Argument of Periapsis(deg)": 0.0,
        "Eccentricity": 0.0,
        "Inclination(deg)": 60.0,
        "Latitude(deg)": -59.14712302386602,
        "Longitude(deg)": 176.03444616410306,
        "Mean Anomaly(deg)": -81.8182,
        "RAAN(deg)": 350.0,
        "Satellite Name": "Test1 1557",
        "Satellite Number": 1557,
        "Semi-Major Axis(m)": 6980739.136638005,
        "Time(s)": 0
    },
    {
        "Altitude(m)": 624737.4532086195,
        "Argument of Periapsis(deg)": 0.00010418945913296404,
        "Eccentricity": 0.0,
        "Inclination(deg)": 60.0,
        "Latitude(deg)": -58.9945800377213,
        "Longitude(deg)": 177.15394943279824,
        "Mean Anomaly(deg)": -81.19809385453816,
        "RAAN(deg)": 349.99957995086027,
        "Satellite Name": "Test1 1557",
        "Satellite Number": 1557,
        "Semi-Major Axis(m)": 6980739.136638005,
        "Time(s)": 10
    }
]